NORAD_CAT_ID,OBJECT_NAME,OBJECT_TYPE,EPOCH,MEAN_MOTION,ECCENTRICITY,INCLINATION,RA_OF_ASC_NODE,ARG_OF_PERICENTER,MEAN_ANOMALY,BSTAR,MEAN_MOTION_DOT,MEAN_MOTION_DDOT,TLE_LINE0,TLE_LINE1,TLE_LINE2,SEMIMAJOR_AXIS,PERIOD,APOGEE,PERIGEE,DECAYED
51798.0,STARLINK-3634,PAYLOAD,2022-08-05 20:00:01,15.08858248,0.0002261,53.2145,118.265,63.8142,149.2403,-0.00097709,-0.00015813,0.0,0 STARLINK-3634,1 51798U 22017AG  22217.83335648 -.00015813  00000-0 -97709-3 0  9991,2 51798  53.2145 118.2650 0002261  63.8142 149.2403 15.08858248 25919,6917.825,95.436,541.254,538.125,0.0
51798.0,STARLINK-3634,PAYLOAD,2022-08-05 22:00:00,15.0885828,0.0002294,53.2144,117.8914,61.9231,243.9714,-0.001295,-0.0002085,0.0,0 STARLINK-3634,1 51798U 22017AG  22217.91667824 -.00020850  00000-0 -12950-2 0  9995,2 51798  53.2144 117.8914 0002294  61.9231 243.9714 15.08858280  1300,6917.825,95.436,541.276,538.1030000000002,0.0
51798.0,STARLINK-3634,PAYLOAD,2022-08-06 14:00:01,15.08806727,0.0002145,53.2148,114.8973,63.6674,265.4476,0.0033271,0.00053014,0.0,0 STARLINK-3634,1 51798U 22017AG  22218.58334491  .00053014  00000-0  33271-2 0  9995,2 51798  53.2148 114.8973 0002145  63.6674 265.4476 15.08806727  1304,6917.982,95.44,541.331,538.363,0.0
51798.0,STARLINK-3634,PAYLOAD,2022-08-06 20:00:01,15.0886766,0.0002105,53.2152,113.7757,63.0815,184.7217,-0.0039512,-0.00062674,0.0,0 STARLINK-3634,1 51798U 22017AG  22218.83334491 -.00062674  00000-0 -39512-2 0  9991,2 51798  53.2152 113.7757 0002105  63.0815 184.7217 15.08867660 26063,6917.795999999999,95.436,541.117,538.205,0.0
51798.0,STARLINK-3634,PAYLOAD,2022-08-06 22:00:00,15.08852381,0.0002138,53.2151,113.402,60.8764,279.8331,-0.0030849,-0.00049068,0.0,0 STARLINK-3634,1 51798U 22017AG  22218.91667824 -.00049068  00000-0 -30849-2 0  9995,2 51798  53.2151 113.4020 0002138  60.8764 279.8331 15.08852381  1303,6917.843000000003,95.437,541.187,538.229,0.0
51798.0,STARLINK-3634,PAYLOAD,2022-08-07 04:00:00,15.08804296,0.0002168,53.2152,112.2806,57.2188,202.1897,0.0030741999999999,0.00048931,0.0,0 STARLINK-3634,1 51798U 22017AG  22219.16667824  .00048931  00000-0  30742-2 0  9991,2 51798  53.2152 112.2806 0002168  57.2188 202.1897 15.08804296 26110,6917.99,95.44,541.354,538.355,0.0
51798.0,STARLINK-3634,PAYLOAD,2022-08-07 14:00:01,15.08808708,0.0002018,53.2154,110.4081,64.6123,299.2757,0.0033439999999999,0.00053289,0.0,0 STARLINK-3634,1 51798U 22017AG  22219.58334491  .00053289  00000-0  33440-2 0  9998,2 51798  53.2154 110.4081 0002018  64.6123 299.2757 15.08808708  1300,6917.976,95.44,541.237,538.445,0.0
51798.0,STARLINK-3634,PAYLOAD,2022-08-07 20:00:01,15.08855327,0.0002088,53.2158,109.2867,63.6978,218.8697,-0.0011642,-0.00018777,0.0,0 STARLINK-3634,1 51798U 22017AG  22219.83334491 -.00018777  00000-0 -11642-2 0  9991,2 51798  53.2158 109.2867 0002088  63.6978 218.8697 15.08855327 26212,6917.834,95.437,541.143,538.254,0.0
51798.0,STARLINK-3634,PAYLOAD,2022-08-07 20:20:33,15.0883979,0.0002242,53.2163,109.2234,63.4308,296.6914,3.4325e-06,-2.34e-06,0.0,0 STARLINK-3634,1 51798U 22017AG  22219.84761381 -.00000234  00000-0  34325-5 0  9998,2 51798  53.2163 109.2234 0002242  63.4308 296.6914 15.08839790 26226,6917.880999999999,95.438,541.297,538.195,0.0
51798.0,STARLINK-3634,PAYLOAD,2022-08-08 09:03:38,15.08850527,0.0002186,53.2162,106.8443,64.8128,295.309,7.5888e-05,9.2e-06,0.0,0 STARLINK-3634,1 51798U 22017AG  22220.37752352  .00000920  00000-0  75888-4 0  9995,2 51798  53.2162 106.8443 0002186  64.8128 295.3090 15.08850527 26303,6917.848000000001,95.437,541.225,538.201,0.0
51798.0,STARLINK-3634,PAYLOAD,2022-08-08 12:00:00,15.08826545,0.0001926,53.2159,106.2933,64.0938,241.7122,0.0021971,0.00034839,0.0,0 STARLINK-3634,1 51798U 22017AG  22220.50001157  .00034839  00000-0  21971-2 0  9998,2 51798  53.2159 106.2933 0001926  64.0938 241.7122 15.08826545 26314,6917.922,95.438,541.119,538.4540000000002,0.0
51798.0,STARLINK-3634,PAYLOAD,2022-08-08 22:00:00,15.08877194,0.0001961,53.2159,104.4242,61.0212,349.2776,-0.0036143,-0.00057411,0.0,0 STARLINK-3634,1 51798U 22017AG  22220.91667824 -.00057411  00000-0 -36143-2 0  9992,2 51798  53.2159 104.4242 0001961  61.0212 349.2776 15.08877194  1305,6917.767,95.435,540.988,538.275,0.0
51798.0,STARLINK-3634,PAYLOAD,2022-08-09 04:00:00,15.08834015,0.0001896999999999,53.2157,103.3023,57.0868,271.928,0.00019216,2.771e-05,0.0,0 STARLINK-3634,1 51798U 22017AG  22221.16667824  .00002771  00000-0  19216-3 0  9990,2 51798  53.2157 103.3023 0001897  57.0868 271.9280 15.08834015 26413,6917.899,95.438,541.076,538.451,0.0
51798.0,STARLINK-3634,PAYLOAD,2022-08-09 14:00:01,15.08790708,0.0001668,53.2157,101.43,64.3832,9.1233,0.0032814,0.00052252,0.0,0 STARLINK-3634,1 51798U 22017AG  22221.58334491  .00052252  00000-0  32814-2 0  9994,2 51798  53.2157 101.4300 0001668  64.3832   9.1233 15.08790708  1308,6918.031,95.441,541.05,538.742,0.0
51798.0,STARLINK-3634,PAYLOAD,2022-08-09 22:00:00,15.08827292,0.000182,53.2156,99.9354,60.4259,24.6256,-0.0010642,-0.00017179,0.0,0 STARLINK-3634,1 51798U 22017AG  22221.91667824 -.00017179  00000-0 -10642-2 0  9996,2 51798  53.2156  99.9354 0001820  60.4259  24.6256 15.08827292 26535,6917.919,95.438,541.043,538.525,0.0
51798.0,STARLINK-3634,PAYLOAD,2022-08-10 14:00:01,15.0881979,0.0001701,53.2152,96.9412,66.6814,41.5402,0.0027997,0.00044526,0.0,0 STARLINK-3634,1 51798U 22017AG  22222.58334491  .00044526  00000-0  27997-2 0  9996,2 51798  53.2152  96.9412 0001701  66.6814  41.5402 15.08819790 26632,6917.941999999999,95.439,540.984,538.63,0.0
51798.0,STARLINK-3634,PAYLOAD,2022-08-10 22:00:00,15.08853813,0.0001794,53.2151,95.4465,61.2145,58.5952,-0.003589,-0.00056978,0.0,0 STARLINK-3634,1 51798U 22017AG  22222.91667824 -.00056978  00000-0 -35890-2 0  9999,2 51798  53.2151  95.4465 0001794  61.2145  58.5952 15.08853813  1302,6917.8380000000025,95.437,540.944,538.462,0.0
51798.0,STARLINK-3634,PAYLOAD,2022-08-11 04:00:00,15.08813212,0.000174,53.2147,94.3243,56.7362,341.7703,0.0012817,0.00020154,0.0,0 STARLINK-3634,1 51798U 22017AG  22223.16667824  .00020154  00000-0  12817-2 0  9996,2 51798  53.2147  94.3243 0001740  56.7362 341.7703 15.08813212 26723,6917.962,95.439,541.031,538.624,0.0
51798.0,STARLINK-3634,PAYLOAD,2022-08-11 14:00:01,15.0881337,0.0001665,53.2147,92.452,66.6789,76.297,0.0023206,0.00036811,0.0,0 STARLINK-3634,1 51798U 22017AG  22223.58334491  .00036811  00000-0  23206-2 0  9994,2 51798  53.2147  92.4520 0001665  66.6789  76.2970 15.08813370  1307,6917.962,95.439,540.979,538.675,0.0
51798.0,STARLINK-3634,PAYLOAD,2022-08-12 04:00:00,15.08838012,0.0001786,53.2144,89.8348,57.31800000000001,15.9309,0.0010647,0.00016696,0.0,0 STARLINK-3634,1 51798U 22017AG  22224.16667824  .00016696  00000-0  10647-2 0  9992,2 51798  53.2144  89.8348 0001786  57.3180  15.9309 15.08838012 26873,6917.886,95.438,540.987,538.516,0.0
51798.0,STARLINK-3634,PAYLOAD,2022-08-12 12:00:00,15.08754094,0.0001751,53.2166,88.3372,59.4633,25.406,0.0069374,0.00111612,0.0,0 STARLINK-3634,1 51798U 22017AG  22224.50001157  .00111612  00000-0  69374-2 0  9996,2 51798  53.2166  88.3372 0001751  59.4633  25.4060 15.08754094 26929,6918.143,95.443,541.219,538.797,0.0
51798.0,STARLINK-3634,PAYLOAD,2022-08-12 14:00:01,15.08776544,0.0001821999999999,53.2168,87.963,61.0813,116.664,0.0058398999999999,0.0009373,0.0,0 STARLINK-3634,1 51798U 22017AG  22224.58334491  .00093730  00000-0  58399-2 0  9999,2 51798  53.2168  87.9630 0001822  61.0813 116.6640 15.08776544  1307,6918.074000000001,95.442,541.2,538.679,0.0
51798.0,STARLINK-3634,PAYLOAD,2022-08-12 22:00:01,15.0882828,0.0001758,53.2145,86.4675,58.3466,131.0509,0.00014727,2.056e-05,0.0,0 STARLINK-3634,1 51798U 22017AG  22224.91668981  .00002056  00000-0  14727-3 0  9999,2 51798  53.2145  86.4675 0001758  58.3466 131.0509 15.08828280  1306,6917.916,95.438,540.997,538.565,0.0
51798.0,STARLINK-3634,PAYLOAD,2022-08-13 04:00:00,15.08841397,0.0001732,53.2144,85.345,55.0289,52.9879,-0.0004463,-7.384e-05,0.0,0 STARLINK-3634,1 51798U 22017AG  22225.16667824 -.00007384  00000-0 -44630-3 0  9999,2 51798  53.2144  85.3450 0001732  55.0289  52.9879 15.08841397 27025,6917.876,95.437,540.939,538.543,0.0
51798.0,STARLINK-3634,PAYLOAD,2022-08-13 14:00:01,15.08804949,0.0001771,53.2167,83.4737,59.3526,153.1545,0.0031208,0.00049682,0.0,0 STARLINK-3634,1 51798U 22017AG  22225.58334491  .00049682  00000-0  31208-2 0  9997,2 51798  53.2167  83.4737 0001771  59.3526 153.1545 15.08804949  1300,6917.988,95.44,541.078,538.627,0.0
51798.0,STARLINK-3634,PAYLOAD,2022-08-13 22:00:00,15.08836412,0.0001864,53.2173,81.9793,56.27,167.8122,4.0681e-05,3.59e-06,0.0,0 STARLINK-3634,1 51798U 22017AG  22225.91667824  .00000359  00000-0  40681-4 0  9998,2 51798  53.2173  81.9793 0001864  56.2700 167.8122 15.08836412  1308,6917.891,95.438,541.0459999999998,538.467,0.0
51798.0,STARLINK-3634,PAYLOAD,2022-08-14 12:00:00,15.08816013,0.0001591,53.215,79.357,62.0454,92.3303,0.0027932,0.00044417,0.0,0 STARLINK-3634,1 51798U 22017AG  22226.50001157  .00044417  00000-0  27932-2 0  9990,2 51798  53.2150  79.3570 0001591  62.0454  92.3303 15.08816013 27222,6917.954000000002,95.439,540.919,538.7180000000002,0.0
51798.0,STARLINK-3634,PAYLOAD,2022-08-14 14:00:01,15.08831417,0.0001623,53.2152,78.983,63.7354,183.5305,0.0017346,0.0002742,0.0,0 STARLINK-3634,1 51798U 22017AG  22226.58334491  .00027420  00000-0  17346-2 0  9991,2 51798  53.2152  78.9830 0001623  63.7354 183.5305 15.08831417  1302,6917.906999999997,95.438,540.894,538.649,0.0
51798.0,STARLINK-3634,PAYLOAD,2022-08-14 22:00:00,15.08835506,0.0001771999999999,53.2152,77.4882,56.3845,202.4799,0.00080509,0.00012547,0.0,0 STARLINK-3634,1 51798U 22017AG  22226.91667824  .00012547  00000-0  80509-3 0  9993,2 51798  53.2152  77.4882 0001772  56.3845 202.4799 15.08835506  1302,6917.894,95.438,540.985,538.533,0.0
